{
    "links": {
        "self": "http://www.neowsapp.com/rest/v1/neo/54097971?api_key=iIulBulltgU6a56xZRHN4H3l9WmuAYTsLGpBGhQ2"
    },
    "id": "54097971",
    "neo_reference_id": "54097971",
    "name": "(2020 XU)",
    "designation": "2020 XU",
    "nasa_jpl_url": "http://ssd.jpl.nasa.gov/sbdb.cgi?sstr=54097971",
    "absolute_magnitude_h": 22.948,
    "estimated_diameter": {
        "kilometers": {
            "estimated_diameter_min": 0.068384075,
            "estimated_diameter_max": 0.1529114402
        },
        "meters": {
            "estimated_diameter_min": 68.3840749703,
            "estimated_diameter_max": 152.9114402121
        },
        "miles": {
            "estimated_diameter_min": 0.042491881,
            "estimated_diameter_max": 0.0950147345
        },
        "feet": {
            "estimated_diameter_min": 224.3572085256,
            "estimated_diameter_max": 501.6779695054
        }
    },
    "is_potentially_hazardous_asteroid": false,
    "close_approach_data": [
        {
            "close_approach_date": "1937-11-24",
            "close_approach_date_full": "1937-Nov-24 13:51",
            "epoch_date_close_approach": -1013076540000,
            "relative_velocity": {
                "kilometers_per_second": "12.6666923926",
                "kilometers_per_hour": "45600.092613522",
                "miles_per_hour": "28334.1242131076"
            },
            "miss_distance": {
                "astronomical": "0.4192683988",
                "lunar": "163.0954071332",
                "kilometers": "62721659.418790556",
                "miles": "38973431.9407834328"
            },
            "orbiting_body": "Earth"
        },
        {
            "close_approach_date": "1938-06-12",
            "close_approach_date_full": "1938-Jun-12 03:08",
            "epoch_date_close_approach": -995835120000,
            "relative_velocity": {
                "kilometers_per_second": "14.9647049999",
                "kilometers_per_hour": "53872.9379996083",
                "miles_per_hour": "33474.5486142566"
            },
            "miss_distance": {
                "astronomical": "0.0659121946",
                "lunar": "25.6398436994",
                "kilometers": "9860323.919185502",
                "miles": "6126921.1742718476"
            },
            "orbiting_body": "Earth"
        },
        {
            "close_approach_date": "2020-12-15",
            "close_approach_date_full": "2020-Dec-15 19:17",
            "epoch_date_close_approach": 1608059820000,
            "relative_velocity": {
                "kilometers_per_second": "13.5133458539",
                "kilometers_per_hour": "48648.0450740173",
                "miles_per_hour": "30228.0033405748"
            },
            "miss_distance": {
                "astronomical": "0.1329404",
                "lunar": "51.7138156",
                "kilometers": "19887600.676948",
                "miles": "12357582.0319624"
            },
            "orbiting_body": "Earth"
        },
        {
            "close_approach_date": "2021-05-18",
            "close_approach_date_full": "2021-May-18 03:37",
            "epoch_date_close_approach": 1621309020000,
            "relative_velocity": {
                "kilometers_per_second": "13.9468189351",
                "kilometers_per_hour": "50208.5481663845",
                "miles_per_hour": "31197.6392759404"
            },
            "miss_distance": {
                "astronomical": "0.3754176801",
                "lunar": "146.0374775589",
                "kilometers": "56161685.303301387",
                "miles": "34897253.0403456606"
            },
            "orbiting_body": "Earth"
        }
    ],
    "orbital_data": {
        "orbit_id": "1",
        "orbit_determination_date": "2020-12-07 01:12:02",
        "first_observation_date": "2020-12-05",
        "last_observation_date": "2020-12-07",
        "data_arc_in_days": 2,
        "observations_used": 31,
        "orbit_uncertainty": "8",
        "minimum_orbit_intersection": ".0155319",
        "jupiter_tisserand_invariant": "5.512",
        "epoch_osculation": "2459189.5",
        "eccentricity": ".2113203602676964",
        "semi_major_axis": "1.108916385107988",
        "inclination": "24.76381074005131",
        "ascending_node_longitude": "77.26036086934083",
        "orbital_period": "426.5270978613792",
        "perihelion_distance": ".8745797751002168",
        "perihelion_argument": "107.1142332141079",
        "aphelion_distance": "1.34325299511576",
        "perihelion_time": "2459290.844480979344",
        "mean_anomaly": "274.462613663948",
        "mean_motion": ".8440260930783806",
        "equinox": "J2000",
        "orbit_class": {
            "orbit_class_type": "APO",
            "orbit_class_description": "Near-Earth asteroid orbits which cross the Earth’s orbit similar to that of 1862 Apollo",
            "orbit_class_range": "a (semi-major axis) > 1.0 AU; q (perihelion) < 1.017 AU"
        }
    },
    "is_sentry_object": false
}